{
  "type": "FeatureCollection",
  "features": [
    {
      "type": "Feature",
      "properties": {
        "name": "2026-04-30 drive route"
      },
      "geometry": {
        "type": "LineString",
        "coordinates": [
          [
            126.7023541,
            37.4922003
          ],
          [
            126.70242337714285,
            37.49225575857143
          ],
          [
            126.70242381,
            37.49225581
          ],
          [
            126.70242236999998,
            37.49225565333333
          ],
          [
            126.70242203923075,
            37.492255661538465
          ],
          [
            126.70242208999998,
            37.492256
          ],
          [
            126.70242252,
            37.49225648
          ],
          [
            126.7023447,
            37.4922064
          ],
          [
            126.70234469999998,
            37.4922064
          ],
          [
            126.70242082,
            37.49226244
          ],
          [
            126.70242105,
            37.49226224
          ],
          [
            126.70241997,
            37.4922611575
          ],
          [
            126.70242025285714,
            37.49226106357143
          ],
          [
            126.70242065181819,
            37.49226094454545
          ],
          [
            126.70242079,
            37.49226085
          ],
          [
            126.70242079,
            37.49226076692308
          ],
          [
            126.702421609,
            37.492260688
          ],
          [
            126.70242212636363,
            37.49226060363637
          ],
          [
            126.70242270384614,
            37.49226046307692
          ],
          [
            126.70242299714286,
            37.49226038
          ],
          [
            126.70242319,
            37.49226034454545
          ],
          [
            126.70242369416667,
            37.49226025083333
          ],
          [
            126.70242395999999,
            37.49226026
          ],
          [
            126.70242411866666,
            37.492260241333334
          ],
          [
            126.70242405636364,
            37.492260280909086
          ],
          [
            126.70242419166668,
            37.49226037166667
          ],
          [
            126.70237498333334,
            37.49222749416666
          ],
          [
            126.7023705,
            37.4922245
          ],
          [
            126.70237049999999,
            37.4922245
          ],
          [
            126.70237049999999,
            37.4922245
          ],
          [
            126.7023705,
            37.4922245
          ],
          [
            126.702410805,
            37.492251079999996
          ],
          [
            126.70242425454545,
            37.492259874545454
          ],
          [
            126.70242355615385,
            37.492259380769234
          ],
          [
            126.70242323615383,
            37.492258513076926
          ],
          [
            126.702425155,
            37.492257959999996
          ],
          [
            126.70242568000002,
            37.49225651
          ],
          [
            126.70242368,
            37.49225539181818
          ],
          [
            126.70242243272727,
            37.492254846363636
          ],
          [
            126.70242346692308,
            37.49225522769231
          ],
          [
            126.70242389666666,
            37.49225540444444
          ],
          [
            126.70242360916667,
            37.49225521416667
          ],
          [
            126.70242365272726,
            37.492255142727274
          ],
          [
            126.70242422636362,
            37.49225543
          ],
          [
            126.70242039,
            37.49225233
          ],
          [
            126.70242035333332,
            37.492252577500004
          ],
          [
            126.70241946666667,
            37.4922625
          ],
          [
            126.7024199,
            37.492346
          ],
          [
            126.7024199,
            37.492346
          ],
          [
            126.7024199,
            37.492346
          ],
          [
            126.70242247499999,
            37.492317275
          ],
          [
            126.70242708846152,
            37.492287096153845
          ],
          [
            126.7024325990909,
            37.49232856818182
          ],
          [
            126.70245408999999,
            37.49240875
          ],
          [
            126.70245673,
            37.49245819923077
          ],
          [
            126.70245495714286,
            37.492483605000004
          ],
          [
            126.702458248,
            37.492500344
          ],
          [
            126.70246226666666,
            37.49250568
          ],
          [
            126.70246820428572,
            37.49251815357143
          ],
          [
            126.70247481909091,
            37.49253660181818
          ],
          [
            126.70247439,
            37.4925457
          ],
          [
            126.70247668,
            37.49256568
          ],
          [
            126.70248263714286,
            37.49258955142857
          ],
          [
            126.70249235,
            37.49262123
          ],
          [
            126.70250739923077,
            37.49264000923077
          ],
          [
            126.70252631076923,
            37.49264445153846
          ],
          [
            126.70254750454546,
            37.492645849090906
          ],
          [
            126.70261261,
            37.4926385
          ],
          [
            126.70263696000002,
            37.49263235
          ],
          [
            126.70269576909091,
            37.49260905909091
          ],
          [
            126.70275249999999,
            37.49258164666667
          ],
          [
            126.70280742333334,
            37.49256206333333
          ],
          [
            126.70285794461539,
            37.49253822923077
          ],
          [
            126.70291716416666,
            37.49250522333333
          ],
          [
            126.70296910692308,
            37.49247780923077
          ],
          [
            126.70303126666666,
            37.49244618
          ],
          [
            126.70309044833334,
            37.492418541666666
          ],
          [
            126.70315089,
            37.49239095
          ],
          [
            126.7032349,
            37.49235252
          ],
          [
            126.70329856923078,
            37.492326604615386
          ],
          [
            126.703354726,
            37.492302398
          ],
          [
            126.70341644583333,
            37.492274695
          ],
          [
            126.70347805363636,
            37.49224811727273
          ],
          [
            126.70354968923077,
            37.49221824846153
          ],
          [
            126.70361848,
            37.49218369333333
          ],
          [
            126.70368377999999,
            37.49215661
          ],
          [
            126.70377247799999,
            37.49211806300001
          ],
          [
            126.70383929999998,
            37.4921044
          ],
          [
            126.70383929999998,
            37.4921044
          ],
          [
            126.70383929999998,
            37.4921044
          ],
          [
            126.70383930000001,
            37.4921044
          ],
          [
            126.7038393,
            37.4921044
          ],
          [
            126.70408152499999,
            37.491959625
          ],
          [
            126.70418157615384,
            37.491886608461535
          ],
          [
            126.70424383666666,
            37.491823405
          ],
          [
            126.70426694499999,
            37.491783257499996
          ],
          [
            126.70427034333332,
            37.491725194666664
          ],
          [
            126.704262098,
            37.491681732
          ],
          [
            126.70422815,
            37.49163819
          ],
          [
            126.70419868399999,
            37.491599373
          ],
          [
            126.7041683476923,
            37.49155286384616
          ],
          [
            126.70413467076924,
            37.49149360538461
          ],
          [
            126.70410369384616,
            37.49144010846154
          ],
          [
            126.70406528090908,
            37.49137652545455
          ],
          [
            126.70403959307693,
            37.49133474
          ],
          [
            126.70399139000001,
            37.49127546
          ],
          [
            126.70395372636364,
            37.491213314545455
          ],
          [
            126.70389699090907,
            37.49109939454546
          ],
          [
            126.7038669,
            37.4910263
          ],
          [
            126.7038669,
            37.4910263
          ],
          [
            126.7038669,
            37.4910263
          ],
          [
            126.7038669,
            37.4910263
          ],
          [
            126.70379470333334,
            37.49096293666667
          ],
          [
            126.70364172384615,
            37.49082337769231
          ],
          [
            126.7035945,
            37.4907528
          ],
          [
            126.70353099,
            37.49068644
          ],
          [
            126.70348523888889,
            37.490624982222215
          ],
          [
            126.70345024615384,
            37.490570376923074
          ],
          [
            126.70340304636362,
            37.49049973727272
          ],
          [
            126.70335795583333,
            37.490433018333334
          ],
          [
            126.70331236153847,
            37.49035717538462
          ],
          [
            126.70328427666668,
            37.490301626666664
          ],
          [
            126.70326026,
            37.49022976
          ],
          [
            126.70323389384615,
            37.49015346
          ],
          [
            126.70320863,
            37.49010431
          ],
          [
            126.70317443923076,
            37.49003403615385
          ],
          [
            126.70313648166666,
            37.48995764666667
          ],
          [
            126.703094693,
            37.48989332
          ],
          [
            126.703111275,
            37.48977632214286
          ],
          [
            126.7031414,
            37.489738
          ],
          [
            126.7031414,
            37.489738
          ],
          [
            126.7031414,
            37.489738
          ],
          [
            126.70284711714285,
            37.48960293142857
          ],
          [
            126.70272798272727,
            37.48954034
          ],
          [
            126.70266039818183,
            37.48949695363636
          ],
          [
            126.70260836846154,
            37.48945129230769
          ],
          [
            126.70256080272726,
            37.48939808636363
          ],
          [
            126.70251752230769,
            37.48933192153846
          ],
          [
            126.70248823909091,
            37.489262747272726
          ],
          [
            126.70246669923077,
            37.48918674153846
          ],
          [
            126.70244857000002,
            37.48911239
          ],
          [
            126.7024368,
            37.48903091384615
          ],
          [
            126.702423537,
            37.488947346
          ],
          [
            126.70241011,
            37.48885604666667
          ],
          [
            126.70239913636364,
            37.48877818272727
          ],
          [
            126.70239037692308,
            37.488709406153845
          ],
          [
            126.70238372,
            37.488647232727274
          ],
          [
            126.70237697,
            37.48858096
          ],
          [
            126.70261699272727,
            37.48874979818182
          ],
          [
            126.70238511923077,
            37.48835750846154
          ],
          [
            126.70240610500001,
            37.488278937500006
          ],
          [
            126.70243787666668,
            37.4882035
          ],
          [
            126.70246892454544,
            37.488142079999996
          ],
          [
            126.70250256000001,
            37.48809087
          ],
          [
            126.70254652,
            37.48803241
          ],
          [
            126.70259535727273,
            37.48797968636364
          ],
          [
            126.70264980461539,
            37.48792112153846
          ],
          [
            126.70270716,
            37.48785972363636
          ],
          [
            126.70277215583333,
            37.4877950725
          ],
          [
            126.70284064000002,
            37.4877336925
          ],
          [
            126.70290604,
            37.48767907
          ],
          [
            126.70299495,
            37.48761287
          ],
          [
            126.703077214,
            37.487553678000005
          ],
          [
            126.70315176000001,
            37.4875052975
          ],
          [
            126.70322178818182,
            37.487461556363634
          ],
          [
            126.70329803466667,
            37.48741595
          ],
          [
            126.70336183357144,
            37.48737816642857
          ],
          [
            126.703413364,
            37.487349478
          ],
          [
            126.7034643,
            37.48733051
          ],
          [
            126.70353823999999,
            37.48731342
          ],
          [
            126.70360853000001,
            37.48730055846154
          ],
          [
            126.70367816272727,
            37.48728789818182
          ],
          [
            126.70375986,
            37.487274219999996
          ],
          [
            126.70384762636364,
            37.48726291636364
          ],
          [
            126.70393954000001,
            37.487254828
          ],
          [
            126.70404734153846,
            37.48724614923077
          ],
          [
            126.70416784,
            37.48723426
          ],
          [
            126.70428307769231,
            37.487227236923076
          ],
          [
            126.704418765,
            37.4872212275
          ],
          [
            126.70454262,
            37.4872147675
          ],
          [
            126.70468853666665,
            37.48721235222222
          ],
          [
            126.70478924384614,
            37.48721053307692
          ],
          [
            126.70492390090908,
            37.487200224545454
          ],
          [
            126.70503645000001,
            37.48719399
          ],
          [
            126.70517412,
            37.4871897
          ],
          [
            126.70529751,
            37.48718218
          ],
          [
            126.70541645,
            37.48717562
          ]
        ]
      }
    }
  ]
}