{
  "type": "FeatureCollection",
  "features": [
    {
      "type": "Feature",
      "properties": {
        "name": "2026-04-30 drive route"
      },
      "geometry": {
        "type": "LineString",
        "coordinates": [
          [
            126.73145739666666,
            37.507624326666665
          ],
          [
            126.73145740666666,
            37.507624453333335
          ],
          [
            126.73145799000001,
            37.50762482
          ],
          [
            126.73145914499999,
            37.5076255625
          ],
          [
            126.73146090999998,
            37.50762713
          ],
          [
            126.73146123900001,
            37.507627564
          ],
          [
            126.73146165,
            37.50762772
          ],
          [
            126.73146184454545,
            37.50762772545455
          ],
          [
            126.73146187545454,
            37.50762776181818
          ],
          [
            126.73146190111112,
            37.507627737777774
          ],
          [
            126.73146199,
            37.50762772
          ],
          [
            126.73146208000001,
            37.50762773636364
          ],
          [
            126.73146220000001,
            37.50762770666666
          ],
          [
            126.73146223666669,
            37.507627676666665
          ],
          [
            126.73146222583334,
            37.50762766583333
          ],
          [
            126.73146222,
            37.50762766
          ],
          [
            126.731462227,
            37.507627657
          ],
          [
            126.73146229000001,
            37.50762763
          ],
          [
            126.73146232,
            37.50762762
          ],
          [
            126.7314623511111,
            37.50762761222222
          ],
          [
            126.7314965,
            37.5076137
          ],
          [
            126.7314965,
            37.5076137
          ],
          [
            126.7314965,
            37.5076137
          ],
          [
            126.7314965,
            37.5076137
          ],
          [
            126.73148628200002,
            37.507617876
          ],
          [
            126.73146243545456,
            37.50762762181818
          ],
          [
            126.73146239,
            37.50762764
          ],
          [
            126.73146218833334,
            37.507627695000004
          ],
          [
            126.73146053666666,
            37.50763709166667
          ],
          [
            126.73143757,
            37.50767906333333
          ],
          [
            126.73142500076922,
            37.50774874076923
          ],
          [
            126.73142385272727,
            37.50781161454545
          ],
          [
            126.73142572700002,
            37.507893237999994
          ],
          [
            126.73143160000001,
            37.50795362
          ],
          [
            126.73144117,
            37.50803999
          ],
          [
            126.73144996200001,
            37.508099230000006
          ],
          [
            126.73146284,
            37.508166525
          ],
          [
            126.73148613416667,
            37.50823496833333
          ],
          [
            126.73151016999999,
            37.50831873090909
          ],
          [
            126.7315175375,
            37.508373004166664
          ],
          [
            126.73151951818181,
            37.50842481363637
          ],
          [
            126.73151850000002,
            37.50846141
          ],
          [
            126.73152646583333,
            37.50848856166667
          ],
          [
            126.73153565363637,
            37.508510766363635
          ],
          [
            126.73153116600001,
            37.508527446
          ],
          [
            126.73152604076924,
            37.50854688692308
          ],
          [
            126.73152598727273,
            37.508555157272724
          ],
          [
            126.73152883333334,
            37.50856218
          ],
          [
            126.73153311799999,
            37.50857233399999
          ],
          [
            126.73154047,
            37.50858823
          ],
          [
            126.73155555400001,
            37.508611045
          ],
          [
            126.73157452166667,
            37.50862678833334
          ],
          [
            126.73160348625,
            37.50863931125
          ],
          [
            126.73164179999999,
            37.50865124
          ],
          [
            126.73169189727273,
            37.508650814545454
          ],
          [
            126.73172834363636,
            37.50864437454545
          ],
          [
            126.73177369999999,
            37.50864066363636
          ],
          [
            126.73181132,
            37.50863699
          ],
          [
            126.73183568299999,
            37.50863375
          ],
          [
            126.73185535727272,
            37.508635782727275
          ],
          [
            126.731883699,
            37.508666160999994
          ],
          [
            126.731921,
            37.5087316
          ],
          [
            126.731921,
            37.5087316
          ],
          [
            126.731902365,
            37.508681155
          ],
          [
            126.73188165636363,
            37.5086600109091
          ],
          [
            126.73188044818181,
            37.508660510909095
          ],
          [
            126.73187878333333,
            37.508660479999996
          ],
          [
            126.73187888181819,
            37.508659916363634
          ],
          [
            126.7318795,
            37.50866044
          ],
          [
            126.73187985999999,
            37.50866132
          ],
          [
            126.73187869636364,
            37.50866144727273
          ],
          [
            126.73187851454544,
            37.508661091818176
          ],
          [
            126.73187893750001,
            37.5086614125
          ],
          [
            126.731879295,
            37.50866179
          ],
          [
            126.73187935400001,
            37.50866188
          ],
          [
            126.7318793075,
            37.5086619425
          ],
          [
            126.731878936,
            37.50866215
          ],
          [
            126.73187836,
            37.50866233
          ],
          [
            126.731877406,
            37.508662573
          ],
          [
            126.73184533909092,
            37.508734531818185
          ],
          [
            126.7318187,
            37.5087945
          ],
          [
            126.7318187,
            37.5087945
          ],
          [
            126.73181870000002,
            37.5087945
          ],
          [
            126.7318187,
            37.5087945
          ],
          [
            126.731865244,
            37.508689532
          ],
          [
            126.73187692500001,
            37.5086634
          ],
          [
            126.73187689000001,
            37.50866356
          ],
          [
            126.73187665090909,
            37.50866370909091
          ],
          [
            126.73187642181819,
            37.50866385090909
          ],
          [
            126.73187624,
            37.50866396
          ],
          [
            126.73187617583335,
            37.50866413416667
          ],
          [
            126.73187612,
            37.508664583333335
          ],
          [
            126.73187604846154,
            37.50866470846154
          ],
          [
            126.73187599799999,
            37.50866474
          ],
          [
            126.73187593666667,
            37.508664780000004
          ],
          [
            126.73187589909092,
            37.50866480363636
          ],
          [
            126.73187584333333,
            37.508664834166666
          ],
          [
            126.73187577000002,
            37.50866499
          ],
          [
            126.73187565083333,
            37.50866532
          ],
          [
            126.73184281666666,
            37.50872327583333
          ],
          [
            126.73183973090909,
            37.50872886545454
          ],
          [
            126.73187529909092,
            37.50866633363636
          ],
          [
            126.731875274,
            37.508666343
          ],
          [
            126.73187522000002,
            37.50866637
          ],
          [
            126.73187523,
            37.50866647
          ],
          [
            126.73187522999999,
            37.508666524
          ],
          [
            126.73187517666666,
            37.50866653666667
          ],
          [
            126.73187510099999,
            37.508666547000004
          ],
          [
            126.731875015,
            37.50866659
          ],
          [
            126.731874938,
            37.50866663
          ],
          [
            126.73187489363636,
            37.508666633636366
          ],
          [
            126.73187481999999,
            37.50866665
          ],
          [
            126.73187471,
            37.50866668
          ],
          [
            126.73187454111111,
            37.50866676
          ],
          [
            126.73187447153848,
            37.50866680461539
          ],
          [
            126.73187440090909,
            37.508666830909085
          ],
          [
            126.73187433272727,
            37.50866686727273
          ],
          [
            126.731874285,
            37.508666903
          ],
          [
            126.73187423923076,
            37.50866691153846
          ],
          [
            126.73187418,
            37.50866692
          ],
          [
            126.73186633272726,
            37.50867108
          ],
          [
            126.73186460000001,
            37.508672
          ],
          [
            126.7318646,
            37.508672
          ],
          [
            126.73186971090908,
            37.508669272727275
          ],
          [
            126.73187397,
            37.50866700666666
          ],
          [
            126.73187395800001,
            37.508667023
          ],
          [
            126.73187392454547,
            37.50866702909091
          ],
          [
            126.73187387000002,
            37.50866702
          ],
          [
            126.731873744,
            37.508666921
          ],
          [
            126.73187349666667,
            37.50866671
          ],
          [
            126.731873414,
            37.508666694
          ],
          [
            126.73187335769231,
            37.50866672615385
          ],
          [
            126.73187331636363,
            37.50866674454546
          ],
          [
            126.73187328363638,
            37.50866675545455
          ],
          [
            126.73187323545454,
            37.50866677454545
          ],
          [
            126.73187319,
            37.50866682
          ],
          [
            126.73187322,
            37.50866694
          ],
          [
            126.731873185,
            37.508667052
          ],
          [
            126.73187318166667,
            37.50866718166667
          ],
          [
            126.73187319,
            37.50866728583333
          ],
          [
            126.73187820818181,
            37.50867518818182
          ],
          [
            126.7319009,
            37.5087106
          ],
          [
            126.73190090000001,
            37.5087106
          ],
          [
            126.73188702,
            37.508689
          ],
          [
            126.73187304181819,
            37.50866744727273
          ],
          [
            126.731872858,
            37.508667536
          ],
          [
            126.73187284,
            37.50866757
          ],
          [
            126.73187289,
            37.50866767
          ],
          [
            126.73187287166667,
            37.508667734166664
          ],
          [
            126.73187295333332,
            37.508667906666666
          ],
          [
            126.731873075,
            37.508668068333336
          ],
          [
            126.73187325363637,
            37.50866828545455
          ],
          [
            126.73187343900001,
            37.508668455999995
          ],
          [
            126.7318737575,
            37.508668677500005
          ],
          [
            126.73187408727273,
            37.508668921818185
          ],
          [
            126.73187476,
            37.50866934
          ],
          [
            126.73187527,
            37.50866973
          ],
          [
            126.73187568727272,
            37.508670122727274
          ],
          [
            126.731876296,
            37.50867063
          ],
          [
            126.73187675454545,
            37.508671160909095
          ],
          [
            126.73184946454545,
            37.508660164545454
          ],
          [
            126.73177639999999,
            37.5086302
          ],
          [
            126.73187688,
            37.50867178
          ],
          [
            126.73187691636363,
            37.50867196181818
          ],
          [
            126.73187688571429,
            37.508672159999996
          ],
          [
            126.73187688,
            37.508672170000004
          ],
          [
            126.73187688,
            37.508672172000004
          ],
          [
            126.73187689333334,
            37.508672186666665
          ],
          [
            126.73187692375001,
            37.508672204999996
          ],
          [
            126.73188423799999,
            37.50867191100001
          ],
          [
            126.73194983000002,
            37.50866895
          ],
          [
            126.73202854111112,
            37.50866666555556
          ],
          [
            126.73211842,
            37.50867082
          ],
          [
            126.732198092,
            37.508665148
          ],
          [
            126.732274995,
            37.5086578
          ],
          [
            126.732346498,
            37.508649524000006
          ],
          [
            126.73240092846154,
            37.50863528153846
          ],
          [
            126.73245339,
            37.50860394
          ],
          [
            126.73249873,
            37.5085588
          ],
          [
            126.732509521,
            37.508518867
          ],
          [
            126.73252382400001,
            37.508479478
          ],
          [
            126.73261721636364,
            37.508509376363634
          ],
          [
            126.73277769999999,
            37.5086325
          ],
          [
            126.7327777,
            37.5086325
          ],
          [
            126.73273177818182,
            37.508566565454544
          ],
          [
            126.73252325545454,
            37.50826269454546
          ],
          [
            126.73250451,
            37.50819104
          ],
          [
            126.73249166454546,
            37.50811153090909
          ],
          [
            126.73249284923077,
            37.508043203076916
          ],
          [
            126.732492736,
            37.507970762999996
          ],
          [
            126.73249370636364,
            37.50791475818182
          ],
          [
            126.73249383272727,
            37.50787462545455
          ],
          [
            126.732491455,
            37.507831448333334
          ],
          [
            126.73249273000002,
            37.50778709
          ],
          [
            126.73248859,
            37.50772457
          ],
          [
            126.73248161090909,
            37.50767936545454
          ],
          [
            126.73246355727274,
            37.50762566181818
          ],
          [
            126.7324410790909,
            37.507564560909096
          ],
          [
            126.73242549499999,
            37.50749397
          ],
          [
            126.73241562,
            37.50742977461538
          ],
          [
            126.73240537714285,
            37.50737062857143
          ],
          [
            126.73241196,
            37.50732592
          ],
          [
            126.73247895499999,
            37.50722615583333
          ],
          [
            126.7325359,
            37.5071848
          ],
          [
            126.73253589999999,
            37.5071848
          ],
          [
            126.73253589999999,
            37.5071848
          ],
          [
            126.7325359,
            37.5071848
          ],
          [
            126.7325359,
            37.5071848
          ],
          [
            126.7321681181818,
            37.50709390909091
          ],
          [
            126.732106305,
            37.507094824999996
          ],
          [
            126.73204604666667,
            37.50710117333333
          ],
          [
            126.73195429,
            37.50712188666667
          ],
          [
            126.73188581545455,
            37.50713306090909
          ],
          [
            126.731794184,
            37.507140871000004
          ],
          [
            126.73171827545455,
            37.50715292454545
          ],
          [
            126.73164462999999,
            37.50715537
          ],
          [
            126.73157345749999,
            37.50717086625
          ],
          [
            126.731515245,
            37.50717602
          ],
          [
            126.73148474499999,
            37.507184269999996
          ],
          [
            126.73146797111112,
            37.507196731111115
          ],
          [
            126.73146250375001,
            37.50720214375
          ],
          [
            126.73145748444443,
            37.50720073666666
          ],
          [
            126.73145512,
            37.50720209
          ],
          [
            126.73146483142857,
            37.50728378142857
          ],
          [
            126.7314769,
            37.5073422
          ],
          [
            126.7314769,
            37.5073422
          ],
          [
            126.73147690000002,
            37.5073422
          ],
          [
            126.73143582615384,
            37.507265226923074
          ],
          [
            126.73140143818182,
            37.50719759909091
          ],
          [
            126.73140364399998,
            37.507194684
          ],
          [
            126.73141061,
            37.50719445
          ],
          [
            126.73141496600002,
            37.507196934
          ],
          [
            126.73141728599998,
            37.507207425000004
          ],
          [
            126.7314113475,
            37.50722039000001
          ],
          [
            126.73140373363636,
            37.507274651818186
          ],
          [
            126.73140348899999,
            37.507324851
          ],
          [
            126.73140911272726,
            37.507406961818184
          ],
          [
            126.73141416000001,
            37.50747646
          ],
          [
            126.7314185875,
            37.50756588083333
          ],
          [
            126.731434137,
            37.507674909
          ],
          [
            126.73144020545455,
            37.50778445454545
          ],
          [
            126.7314443,
            37.507905641818176
          ],
          [
            126.73145245999999,
            37.5080246
          ],
          [
            126.73146365400001,
            37.508141067000004
          ],
          [
            126.73148156363636,
            37.50832143727273
          ],
          [
            126.7314844,
            37.5083491
          ],
          [
            126.7314844,
            37.5083491
          ],
          [
            126.73148675076922,
            37.50847737076923
          ],
          [
            126.73149321454547,
            37.50877898454546
          ],
          [
            126.73150496,
            37.50890903
          ],
          [
            126.73150641454545,
            37.509046975454545
          ],
          [
            126.73150940249998,
            37.5091707725
          ],
          [
            126.73152067,
            37.50929694
          ],
          [
            126.73152704,
            37.5094056
          ],
          [
            126.73153304272728,
            37.50951143363636
          ],
          [
            126.73154491499999,
            37.509608217499995
          ],
          [
            126.73155537,
            37.50967847
          ],
          [
            126.73156278,
            37.50977239
          ],
          [
            126.73157016333333,
            37.50984937333333
          ],
          [
            126.73157832363636,
            37.50992858090909
          ],
          [
            126.73158901363637,
            37.51001244272727
          ],
          [
            126.73159731799998,
            37.510084386
          ],
          [
            126.73160434333333,
            37.51017038
          ],
          [
            126.73160691666668,
            37.51023917444444
          ],
          [
            126.73160217000002,
            37.51031833
          ],
          [
            126.7315271,
            37.5103145
          ],
          [
            126.7315271,
            37.5103145
          ],
          [
            126.731559576,
            37.51044332
          ],
          [
            126.73160912692308,
            37.51065478076923
          ],
          [
            126.73161372999999,
            37.51075505
          ],
          [
            126.73162547,
            37.51085272
          ],
          [
            126.73162277,
            37.51091100727273
          ],
          [
            126.73162484333335,
            37.510975773333335
          ],
          [
            126.73161445214286,
            37.51079946857143
          ],
          [
            126.73162611777778,
            37.51109241444445
          ],
          [
            126.73162833153847,
            37.51113135
          ],
          [
            126.73163545333334,
            37.51115844777778
          ],
          [
            126.73163564,
            37.51116446
          ],
          [
            126.73163538153845,
            37.51116965692308
          ],
          [
            126.73163761833332,
            37.51117153166667
          ],
          [
            126.73164333545455,
            37.51117332545454
          ],
          [
            126.731645466,
            37.51117671
          ],
          [
            126.73164659,
            37.511179106
          ],
          [
            126.73164865818181,
            37.51118020181818
          ],
          [
            126.731651201,
            37.511181764
          ],
          [
            126.73165229,
            37.51118279
          ],
          [
            126.73165603,
            37.5111849
          ],
          [
            126.73165755000001,
            37.511185983636366
          ],
          [
            126.73165806909091,
            37.51118642181819
          ],
          [
            126.73165832,
            37.51118678
          ],
          [
            126.73165919846154,
            37.51118741923077
          ],
          [
            126.73166057,
            37.511187976
          ],
          [
            126.73166193000002,
            37.51118904
          ],
          [
            126.73166266000001,
            37.51118978
          ],
          [
            126.73166349333333,
            37.511190488333334
          ],
          [
            126.73166424888889,
            37.51119089666666
          ],
          [
            126.73166488363636,
            37.51119141
          ],
          [
            126.73166484999999,
            37.51119163
          ],
          [
            126.73166461199999,
            37.511191578
          ],
          [
            126.73166439399999,
            37.511194228
          ],
          [
            126.73166461,
            37.51120518
          ],
          [
            126.73166611,
            37.51124712
          ],
          [
            126.73166443800001,
            37.511304784000004
          ],
          [
            126.73166087,
            37.51135385
          ],
          [
            126.73164021500001,
            37.51140273
          ],
          [
            126.73159811000001,
            37.51146605090909
          ],
          [
            126.73154411000002,
            37.51151838
          ],
          [
            126.73147400692308,
            37.51155601230769
          ],
          [
            126.73138148000001,
            37.51157401
          ],
          [
            126.73127347833332,
            37.511583195
          ],
          [
            126.731157037,
            37.511591859999996
          ],
          [
            126.73105658272726,
            37.51159334090909
          ],
          [
            126.73093855454545,
            37.51159774909091
          ],
          [
            126.73079901999999,
            37.511608188
          ],
          [
            126.7306732125,
            37.511618507499996
          ],
          [
            126.73055976,
            37.51162441
          ],
          [
            126.7304017,
            37.51163024
          ],
          [
            126.73026656363636,
            37.51163521272727
          ],
          [
            126.73015672923076,
            37.511644017692305
          ],
          [
            126.73003703666666,
            37.511652884166665
          ],
          [
            126.7299318109091,
            37.51165872090909
          ],
          [
            126.72983150666666,
            37.51166516916667
          ],
          [
            126.72976012000001,
            37.51167322384616
          ],
          [
            126.72970852,
            37.51168197
          ],
          [
            126.72965554000001,
            37.51168187
          ],
          [
            126.72963121272727,
            37.51168769727273
          ],
          [
            126.72959357555555,
            37.51171702666667
          ],
          [
            126.7295478969231,
            37.51179030461538
          ],
          [
            126.72959683,
            37.51168418
          ],
          [
            126.72959012916668,
            37.51168021083333
          ],
          [
            126.72959000727273,
            37.51167964636364
          ],
          [
            126.72958969416668,
            37.51167894
          ],
          [
            126.72958801777779,
            37.511677212222224
          ],
          [
            126.7295864909091,
            37.51167591727273
          ],
          [
            126.72958517500001,
            37.511674879
          ],
          [
            126.72958390999999,
            37.51167345090909
          ],
          [
            126.72958281,
            37.51167226
          ],
          [
            126.72958141,
            37.511672227999995
          ],
          [
            126.72957983111112,
            37.51167269444445
          ],
          [
            126.72956732181818,
            37.511673675454546
          ],
          [
            126.72950859,
            37.511679048750004
          ],
          [
            126.729442278,
            37.511683398
          ],
          [
            126.729349335,
            37.511685195
          ],
          [
            126.72927500222221,
            37.51168605888889
          ],
          [
            126.72917654,
            37.51169997
          ],
          [
            126.72907009625,
            37.511702568749996
          ],
          [
            126.72895800999999,
            37.511714039999994
          ],
          [
            126.7288213477778,
            37.51172352333333
          ],
          [
            126.72868338250001,
            37.51173230625
          ],
          [
            126.72851096,
            37.51174626
          ],
          [
            126.7283412425,
            37.5117592325
          ],
          [
            126.72819275,
            37.51177079
          ],
          [
            126.72799148,
            37.51177896
          ],
          [
            126.727802305,
            37.511790562499996
          ],
          [
            126.72762088,
            37.51180130666667
          ],
          [
            126.72741598,
            37.51180991111111
          ],
          [
            126.72723754666669,
            37.51181566333334
          ],
          [
            126.72701988285714,
            37.51182312142857
          ],
          [
            126.72685709,
            37.51182925
          ],
          [
            126.72662398,
            37.51184233
          ],
          [
            126.72641329818181,
            37.511853157272725
          ],
          [
            126.72620802200001,
            37.51186312
          ],
          [
            126.7260340588889,
            37.51187134
          ],
          [
            126.72582772857142,
            37.51187635
          ],
          [
            126.72562821999999,
            37.51188160181818
          ],
          [
            126.72542670666667,
            37.51189586833333
          ],
          [
            126.72523034,
            37.51190091
          ],
          [
            126.725076645,
            37.51193813
          ],
          [
            126.7251612,
            37.511964
          ],
          [
            126.7251612,
            37.511964
          ],
          [
            126.72468241076923,
            37.51195532
          ],
          [
            126.7241714,
            37.511950328
          ],
          [
            126.72393786666667,
            37.511954843333335
          ],
          [
            126.72373471666667,
            37.51195610833333
          ],
          [
            126.723545,
            37.511954
          ],
          [
            126.72333927272726,
            37.51195331818182
          ],
          [
            126.72313134166666,
            37.511954375
          ],
          [
            126.72295433666666,
            37.51196031333333
          ],
          [
            126.72279764846154,
            37.51196611461539
          ],
          [
            126.72260837692308,
            37.51197621461539
          ],
          [
            126.72245877818182,
            37.51198520636363
          ],
          [
            126.72233320000001,
            37.51198845
          ],
          [
            126.72216402,
            37.5119901
          ],
          [
            126.72200232916667,
            37.51198777166667
          ],
          [
            126.72188188642858,
            37.51199254214286
          ],
          [
            126.72171841214286,
            37.51200467642857
          ],
          [
            126.72158838454544,
            37.51201463454545
          ],
          [
            126.72145490090908,
            37.51202391818182
          ],
          [
            126.72135607454547,
            37.512031312727274
          ],
          [
            126.72128360000002,
            37.51203641
          ],
          [
            126.721240094,
            37.512045509000004
          ],
          [
            126.72120121833332,
            37.51205081166666
          ],
          [
            126.72116412636365,
            37.51205594636364
          ],
          [
            126.72112595545455,
            37.512071344545454
          ],
          [
            126.7210800681818,
            37.51209940545454
          ],
          [
            126.72105491909089,
            37.51212569545455
          ],
          [
            126.72103968818182,
            37.51216964272727
          ],
          [
            126.72103752000001,
            37.51221758
          ],
          [
            126.72103682,
            37.51229384
          ],
          [
            126.72104327090909,
            37.51236182545455
          ],
          [
            126.72105594181818,
            37.51245439272727
          ],
          [
            126.72106853636365,
            37.51254528363636
          ],
          [
            126.7210815,
            37.51265477454546
          ],
          [
            126.72109417454546,
            37.51276912545455
          ],
          [
            126.7211052,
            37.51285746
          ],
          [
            126.72112552000002,
            37.51299319
          ],
          [
            126.72113744800001,
            37.513107398
          ],
          [
            126.72115371727273,
            37.51325270454545
          ],
          [
            126.72116759,
            37.51336326833333
          ],
          [
            126.72118267181818,
            37.513490023636365
          ],
          [
            126.72119595090909,
            37.51361038363636
          ],
          [
            126.72121305090909,
            37.51374920181818
          ],
          [
            126.72123551,
            37.51388448
          ],
          [
            126.72125575846154,
            37.51401924692308
          ],
          [
            126.72128142,
            37.514150493
          ],
          [
            126.7213045090909,
            37.51428721090909
          ],
          [
            126.721331026,
            37.514469742
          ],
          [
            126.72134618714286,
            37.514587764285714
          ],
          [
            126.72136195272728,
            37.51473305727273
          ],
          [
            126.72137578,
            37.51485954
          ],
          [
            126.72139002700001,
            37.514989797
          ],
          [
            126.72139634,
            37.515106499285714
          ],
          [
            126.721411175,
            37.515205593333334
          ],
          [
            126.721430438,
            37.515307748
          ],
          [
            126.72145115461538,
            37.515426014615386
          ],
          [
            126.72146498,
            37.51551448153846
          ],
          [
            126.72147728,
            37.51558892
          ],
          [
            126.72149378,
            37.51567598
          ],
          [
            126.721497443,
            37.515736478
          ],
          [
            126.72150551499999,
            37.51578035600001
          ],
          [
            126.72150853909092,
            37.51581978090909
          ],
          [
            126.72151476090909,
            37.51585089363636
          ],
          [
            126.72152193000001,
            37.51586842818182
          ],
          [
            126.72152689272728,
            37.51587587636363
          ],
          [
            126.72152692,
            37.51587574
          ],
          [
            126.72153195076923,
            37.5158751676923
          ],
          [
            126.72153647727272,
            37.51587292727273
          ],
          [
            126.72153957727274,
            37.515872734545454
          ],
          [
            126.72154130000001,
            37.51587223
          ],
          [
            126.72154116454546,
            37.51587136636363
          ],
          [
            126.72154141499999,
            37.5158719975
          ],
          [
            126.72154216916668,
            37.515873284166666
          ],
          [
            126.72154238,
            37.51587399
          ],
          [
            126.72154705076923,
            37.51587589384615
          ],
          [
            126.72154678,
            37.515875343999994
          ],
          [
            126.72154594,
            37.515874519166665
          ],
          [
            126.72154584,
            37.51587447181818
          ],
          [
            126.72154619099999,
            37.515875140000006
          ],
          [
            126.72154605,
            37.5158757125
          ],
          [
            126.7216398409091,
            37.51587898181818
          ],
          [
            126.7217183,
            37.5158815
          ],
          [
            126.7217183,
            37.5158815
          ],
          [
            126.72166118666667,
            37.51587972666667
          ],
          [
            126.721547146,
            37.515876198
          ],
          [
            126.7215475625,
            37.51587623416666
          ],
          [
            126.72154737,
            37.51587617
          ],
          [
            126.72154723250001,
            37.515876133333336
          ],
          [
            126.721547157,
            37.515876102
          ],
          [
            126.72154690999999,
            37.51587610333333
          ],
          [
            126.72154640000001,
            37.515876075
          ],
          [
            126.72154601846154,
            37.51587603692308
          ],
          [
            126.72154599818181,
            37.515876024545456
          ],
          [
            126.72154572,
            37.515876
          ],
          [
            126.72154548,
            37.51587598
          ],
          [
            126.72154539,
            37.51587593
          ],
          [
            126.72154540538462,
            37.51587593
          ],
          [
            126.72154541545454,
            37.515875935454545
          ],
          [
            126.72154542799998,
            37.515875924
          ],
          [
            126.72154544333333,
            37.5158759
          ],
          [
            126.72154545222222,
            37.51587589555555
          ],
          [
            126.72154545999999,
            37.51587588
          ],
          [
            126.72154625,
            37.51587618
          ],
          [
            126.7215462990909,
            37.51587637636363
          ],
          [
            126.72154639666667,
            37.51587646666666
          ],
          [
            126.72154646999999,
            37.515876524999996
          ],
          [
            126.72154652666667,
            37.5158766
          ],
          [
            126.72154647545455,
            37.51587848
          ],
          [
            126.72154892454546,
            37.51589755272727
          ],
          [
            126.72156096,
            37.51596142
          ],
          [
            126.72156150999999,
            37.51603056
          ],
          [
            126.72156276999999,
            37.51610388545455
          ],
          [
            126.72156717,
            37.516185480000004
          ],
          [
            126.72157495307692,
            37.51626503153846
          ],
          [
            126.72158476636363,
            37.51636598636364
          ],
          [
            126.72159233923078,
            37.51645374384616
          ],
          [
            126.72160171499999,
            37.516536866
          ],
          [
            126.72160896,
            37.51663142
          ],
          [
            126.72162002363638,
            37.51672660181818
          ],
          [
            126.721633863,
            37.516815542
          ],
          [
            126.72164418285715,
            37.51690960285714
          ],
          [
            126.72163456444443,
            37.51700493111111
          ],
          [
            126.7215999,
            37.5170394
          ],
          [
            126.7215999,
            37.5170394
          ],
          [
            126.7215999,
            37.5170394
          ],
          [
            126.72161878181818,
            37.51717130454546
          ],
          [
            126.72164516999999,
            37.517361173333335
          ],
          [
            126.72165255999998,
            37.517449078
          ],
          [
            126.72165228,
            37.51754803
          ],
          [
            126.72164746333334,
            37.517642271666666
          ],
          [
            126.72165630999999,
            37.51775991545455
          ],
          [
            126.72166876333333,
            37.51786649666667
          ],
          [
            126.72167754545454,
            37.51796621909091
          ],
          [
            126.7216898776923,
            37.518086444615385
          ],
          [
            126.72170674399999,
            37.518194878
          ],
          [
            126.72172328,
            37.51830007
          ],
          [
            126.72174252,
            37.51843155
          ],
          [
            126.721760045,
            37.51854506666667
          ],
          [
            126.72177879363636,
            37.51866758090909
          ],
          [
            126.72179484666667,
            37.5187886425
          ],
          [
            126.72182008454546,
            37.518916520909094
          ],
          [
            126.72184622272727,
            37.51903783545455
          ],
          [
            126.72186341599999,
            37.519187327000004
          ],
          [
            126.72187421,
            37.51929008
          ],
          [
            126.72188348,
            37.51942524
          ],
          [
            126.72189302166667,
            37.51953710666667
          ],
          [
            126.72190066545454,
            37.51967310090909
          ],
          [
            126.721907295,
            37.51977609666667
          ],
          [
            126.72191544272728,
            37.51989559818182
          ],
          [
            126.721923765,
            37.520010234999994
          ],
          [
            126.72193327538463,
            37.52011920538461
          ],
          [
            126.72194535,
            37.52023248
          ],
          [
            126.72195845833333,
            37.52034103833333
          ],
          [
            126.72197241999999,
            37.520462576363634
          ],
          [
            126.72198208666667,
            37.520575826666665
          ],
          [
            126.7219841490909,
            37.52069085090909
          ],
          [
            126.72198770250002,
            37.5208099975
          ],
          [
            126.72199689666667,
            37.520941023333336
          ],
          [
            126.72200180999998,
            37.52103161
          ],
          [
            126.72201440999999,
            37.52116666
          ],
          [
            126.72201493200001,
            37.521276820000004
          ],
          [
            126.72201983166667,
            37.521395176666665
          ],
          [
            126.72202594363635,
            37.521486916363635
          ],
          [
            126.72203905583332,
            37.5216293125
          ],
          [
            126.72204983076924,
            37.521727228461536
          ],
          [
            126.722062052,
            37.521837568
          ],
          [
            126.7220707,
            37.52193532
          ],
          [
            126.7220837075,
            37.52205182833333
          ],
          [
            126.722091307,
            37.522176657
          ],
          [
            126.7221051825,
            37.52228601
          ],
          [
            126.72211275181817,
            37.52239622909091
          ],
          [
            126.722125234,
            37.522491016
          ],
          [
            126.72214867727274,
            37.52260993636364
          ],
          [
            126.722167382,
            37.522709997999996
          ],
          [
            126.72219007,
            37.52280507
          ],
          [
            126.72222157,
            37.52292777
          ],
          [
            126.72225753153846,
            37.52302259846154
          ],
          [
            126.72230016454546,
            37.52309645727273
          ],
          [
            126.72236321583334,
            37.523170156666666
          ],
          [
            126.72242960727272,
            37.52322394090909
          ],
          [
            126.722524405,
            37.523278590000004
          ],
          [
            126.72261933999998,
            37.52331522
          ],
          [
            126.72276063,
            37.5233558
          ],
          [
            126.722892545,
            37.5233946325
          ],
          [
            126.72302891,
            37.523433009090915
          ],
          [
            126.72319626909092,
            37.52347459909091
          ],
          [
            126.723345232,
            37.523508666
          ],
          [
            126.72353080333333,
            37.52354698
          ],
          [
            126.723710486,
            37.523579729999994
          ],
          [
            126.72388679000001,
            37.52361225
          ],
          [
            126.72408347181818,
            37.52363827727273
          ],
          [
            126.72431417636363,
            37.52366668
          ],
          [
            126.72451952,
            37.52368395222222
          ],
          [
            126.72468967692308,
            37.523696009999995
          ],
          [
            126.72495485500001,
            37.52371167
          ],
          [
            126.72517087666667,
            37.52372229333333
          ],
          [
            126.725374378,
            37.523732108999994
          ],
          [
            126.72562285,
            37.52374605
          ],
          [
            126.72589811999998,
            37.52375773
          ],
          [
            126.72613732363635,
            37.52376401363637
          ],
          [
            126.72638149727273,
            37.52376584272727
          ],
          [
            126.72662453636363,
            37.52376584
          ],
          [
            126.72691898749999,
            37.523767123333336
          ],
          [
            126.72714139222222,
            37.523769396666665
          ],
          [
            126.72742221000001,
            37.52376985
          ],
          [
            126.72775831999999,
            37.52377987
          ],
          [
            126.72806897833333,
            37.52378497583333
          ],
          [
            126.72831627545453,
            37.523787896363636
          ],
          [
            126.72866665272727,
            37.523792933636365
          ],
          [
            126.728977085,
            37.52379792
          ],
          [
            126.72929631727274,
            37.523803390000005
          ],
          [
            126.72960090833334,
            37.52380992833333
          ],
          [
            126.72992085,
            37.52382022
          ],
          [
            126.73024933181819,
            37.523832929090915
          ],
          [
            126.73056395692308,
            37.52383948461539
          ],
          [
            126.73090521,
            37.52383920090909
          ],
          [
            126.731176775,
            37.523839365
          ],
          [
            126.73147775363637,
            37.52384242272727
          ],
          [
            126.73178723,
            37.523847825
          ],
          [
            126.73205582,
            37.52385252
          ],
          [
            126.73241389,
            37.52385312
          ],
          [
            126.73274015,
            37.52385704333333
          ],
          [
            126.73303385499999,
            37.5238619
          ],
          [
            126.73329315000001,
            37.523864155
          ],
          [
            126.73363241,
            37.523868375
          ],
          [
            126.73392002666667,
            37.52387636666666
          ],
          [
            126.73422880400001,
            37.523889514000004
          ],
          [
            126.73450682000001,
            37.52390589
          ],
          [
            126.73486619999998,
            37.52391769
          ],
          [
            126.735206274,
            37.523925916
          ],
          [
            126.73549518,
            37.52393571666667
          ],
          [
            126.73582752727272,
            37.523943236363635
          ],
          [
            126.73613755545453,
            37.523946745454545
          ],
          [
            126.73647904,
            37.523950330909095
          ],
          [
            126.73681492,
            37.52395526181818
          ],
          [
            126.73712038,
            37.52395428
          ],
          [
            126.73745849249998,
            37.52395791
          ],
          [
            126.73775688199999,
            37.523962559
          ],
          [
            126.7381155781818,
            37.52396542818182
          ],
          [
            126.73841676666666,
            37.52396307666667
          ],
          [
            126.73877392333334,
            37.523959813333335
          ],
          [
            126.7391356325,
            37.52396125
          ],
          [
            126.73943665999998,
            37.5239605
          ],
          [
            126.73981526000001,
            37.52396468153846
          ],
          [
            126.74015775000001,
            37.52396782222222
          ],
          [
            126.74051069,
            37.523970840000004
          ],
          [
            126.74085363454546,
            37.52397487909091
          ],
          [
            126.74115582333333,
            37.52397855
          ],
          [
            126.7415027125,
            37.523980975
          ],
          [
            126.74184806166666,
            37.52398161166667
          ],
          [
            126.74216477,
            37.52398532
          ],
          [
            126.74251948333334,
            37.523988106666664
          ],
          [
            126.7428364975,
            37.52398914
          ],
          [
            126.74316826818182,
            37.52399307818182
          ],
          [
            126.74350718454546,
            37.523996309090904
          ],
          [
            126.74381100454546,
            37.52400046454546
          ],
          [
            126.744120046,
            37.52400566
          ],
          [
            126.74441699000002,
            37.52400394
          ],
          [
            126.74476891,
            37.52400881
          ],
          [
            126.74505930166667,
            37.524013884999995
          ],
          [
            126.7454029990909,
            37.52401807454545
          ],
          [
            126.74566991444443,
            37.524022835555556
          ],
          [
            126.74596577545454,
            37.52402707636364
          ],
          [
            126.746308099,
            37.524028742
          ],
          [
            126.74659333749999,
            37.52402841666666
          ],
          [
            126.74692331,
            37.52402684
          ],
          [
            126.747233135,
            37.52402550666667
          ],
          [
            126.74759312272728,
            37.52402190181818
          ],
          [
            126.7478508,
            37.52402266
          ],
          [
            126.74824025,
            37.52402394727273
          ],
          [
            126.74848344777777,
            37.52402358555556
          ],
          [
            126.74879527399999,
            37.524024495000006
          ],
          [
            126.74913848,
            37.52403849
          ],
          [
            126.74946926833333,
            37.52404148750001
          ],
          [
            126.7497662125,
            37.5240436125
          ],
          [
            126.75007835545456,
            37.52404450363636
          ],
          [
            126.75039799363638,
            37.52404191090909
          ],
          [
            126.75072436181819,
            37.52403713818182
          ],
          [
            126.75100431333334,
            37.52403247111111
          ],
          [
            126.75128576,
            37.52402656
          ],
          [
            126.75164339,
            37.52402849
          ],
          [
            126.75193496545454,
            37.52402734454545
          ],
          [
            126.75230381833335,
            37.524024698333335
          ],
          [
            126.75259540727274,
            37.52402849636364
          ],
          [
            126.752905865,
            37.524025875
          ],
          [
            126.75320762000001,
            37.52402109
          ],
          [
            126.75352029454547,
            37.52401990090909
          ],
          [
            126.7538188,
            37.52401203
          ],
          [
            126.75416040933332,
            37.52400020466666
          ],
          [
            126.75445829,
            37.5239929925
          ],
          [
            126.75480267538462,
            37.52398481923077
          ],
          [
            126.75511245846154,
            37.52397682615385
          ],
          [
            126.755407545,
            37.52397312642857
          ],
          [
            126.75575749181817,
            37.52397298818182
          ],
          [
            126.75600379818182,
            37.523970289090904
          ],
          [
            126.75631258,
            37.52397238
          ],
          [
            126.75661054300001,
            37.523976754
          ],
          [
            126.75689846599998,
            37.523973864
          ],
          [
            126.75721938142856,
            37.523971957142855
          ],
          [
            126.757401515,
            37.523973225
          ],
          [
            126.757643584,
            37.52397507
          ],
          [
            126.75785219222222,
            37.52397746333333
          ],
          [
            126.75804260000001,
            37.52398374
          ],
          [
            126.75826454,
            37.5239795
          ],
          [
            126.75845536875,
            37.5239696475
          ],
          [
            126.75861339666666,
            37.52395014666667
          ],
          [
            126.75878079333332,
            37.52390069333333
          ],
          [
            126.75890107272727,
            37.523835080909095
          ],
          [
            126.75899244333334,
            37.523763306666666
          ],
          [
            126.75907145545456,
            37.523674007272724
          ],
          [
            126.75912422000002,
            37.52357756
          ],
          [
            126.75916107,
            37.52346308
          ],
          [
            126.75916452454545,
            37.52337228
          ],
          [
            126.75914934615386,
            37.52325962076923
          ],
          [
            126.75910469181818,
            37.52314217181818
          ],
          [
            126.75903935090909,
            37.52304801818182
          ],
          [
            126.7589429975,
            37.522959905
          ],
          [
            126.75884666,
            37.52289098
          ],
          [
            126.7587055,
            37.52283841
          ],
          [
            126.75857313454547,
            37.52281445363636
          ],
          [
            126.75842771692307,
            37.522806346923076
          ],
          [
            126.75827891249999,
            37.52281699833333
          ],
          [
            126.75814234583333,
            37.522844685833334
          ],
          [
            126.75799828363637,
            37.52290006909091
          ],
          [
            126.75789540000001,
            37.52296514142857
          ],
          [
            126.75780432,
            37.52305623
          ],
          [
            126.75771796545455,
            37.52317113
          ],
          [
            126.757644944,
            37.523323190999996
          ],
          [
            126.75761200090909,
            37.52342122272727
          ],
          [
            126.75757343,
            37.523569990000006
          ],
          [
            126.75754457666666,
            37.52372375111111
          ],
          [
            126.75751968499999,
            37.5238613075
          ],
          [
            126.75748915999999,
            37.52399771
          ],
          [
            126.75745932363635,
            37.524166491818185
          ],
          [
            126.757431308,
            37.524333322000004
          ],
          [
            126.75739649666666,
            37.52449885666667
          ],
          [
            126.75736244727273,
            37.524673694545456
          ],
          [
            126.75732635181818,
            37.524861653636364
          ],
          [
            126.75729176142856,
            37.52503473857143
          ],
          [
            126.75725809166666,
            37.525213945
          ],
          [
            126.75722785,
            37.52538062
          ],
          [
            126.75718256,
            37.52558501
          ],
          [
            126.75715051000002,
            37.525748435
          ],
          [
            126.75711575818183,
            37.52592420363636
          ],
          [
            126.75706677583332,
            37.526086639999995
          ],
          [
            126.756994205,
            37.526251824999996
          ],
          [
            126.756927532,
            37.526373922
          ],
          [
            126.756816606,
            37.526546894
          ],
          [
            126.75671687000002,
            37.52668499
          ],
          [
            126.756594686,
            37.526838350000006
          ],
          [
            126.75646311799999,
            37.526977694
          ],
          [
            126.75633269272727,
            37.52710160545455
          ],
          [
            126.75617974000001,
            37.52723829090909
          ],
          [
            126.75603015538461,
            37.52736788461539
          ],
          [
            126.75587614,
            37.52749916444444
          ],
          [
            126.75573012,
            37.52762189
          ],
          [
            126.7555568975,
            37.527756493333335
          ],
          [
            126.75536885909092,
            37.52789673
          ],
          [
            126.75519427727272,
            37.52801817636364
          ],
          [
            126.75503953909092,
            37.528114745454545
          ],
          [
            126.75484364666666,
            37.528224191666666
          ],
          [
            126.75463130333333,
            37.52832552666666
          ],
          [
            126.75443136818181,
            37.52840685818182
          ],
          [
            126.7542321,
            37.52847939
          ],
          [
            126.75399912916667,
            37.5285412375
          ],
          [
            126.75379592090908,
            37.52859587818182
          ],
          [
            126.75355776666667,
            37.52864317333333
          ],
          [
            126.75334021454546,
            37.528666957272726
          ],
          [
            126.753138554,
            37.528674358
          ],
          [
            126.752932106,
            37.528667371
          ],
          [
            126.752746781,
            37.52864709200001
          ],
          [
            126.75254285,
            37.52859959
          ],
          [
            126.75237458846155,
            37.528552336153844
          ],
          [
            126.752177551,
            37.528480592
          ],
          [
            126.75201428999999,
            37.528399005000004
          ],
          [
            126.75183511083333,
            37.52829173166667
          ],
          [
            126.75169146800002,
            37.528191598
          ],
          [
            126.75155778,
            37.52807307
          ],
          [
            126.75143913545456,
            37.52794338
          ],
          [
            126.75132438499999,
            37.527775567142854
          ],
          [
            126.75123481090908,
            37.527596147272725
          ],
          [
            126.75118488,
            37.52745183846154
          ],
          [
            126.75114568090909,
            37.527275055454545
          ],
          [
            126.75112949454545,
            37.52711534272727
          ],
          [
            126.75113217,
            37.52695052
          ],
          [
            126.75115569727272,
            37.52675814727272
          ],
          [
            126.7511789975,
            37.526584275
          ],
          [
            126.75121186999999,
            37.526400525999996
          ],
          [
            126.75124588416666,
            37.526218715
          ],
          [
            126.75128866,
            37.525995034000005
          ],
          [
            126.75132468545453,
            37.52581416454546
          ],
          [
            126.75135639000001,
            37.52562487
          ],
          [
            126.75140306000002,
            37.52539073
          ],
          [
            126.75142158363637,
            37.525206680000004
          ],
          [
            126.75143191090909,
            37.52499890727273
          ],
          [
            126.75143123000001,
            37.524776036999995
          ],
          [
            126.75142068583334,
            37.524612415
          ],
          [
            126.75139337799999,
            37.52438858
          ],
          [
            126.75136324818182,
            37.52420925
          ],
          [
            126.75132454,
            37.52401611
          ],
          [
            126.75128087,
            37.52379941
          ],
          [
            126.75123970727273,
            37.52359544090909
          ],
          [
            126.75120278666665,
            37.523410024444445
          ],
          [
            126.75114886538462,
            37.52313637307692
          ],
          [
            126.75110230333333,
            37.52289381333333
          ],
          [
            126.75106253727272,
            37.52268195909091
          ],
          [
            126.75100801000002,
            37.52242195
          ],
          [
            126.75095816,
            37.52213415
          ],
          [
            126.7509130690909,
            37.521871395454546
          ],
          [
            126.750871047,
            37.521642519
          ],
          [
            126.750818952,
            37.521377748000006
          ],
          [
            126.75077060181819,
            37.52114959272728
          ],
          [
            126.75071785363637,
            37.52090327636363
          ],
          [
            126.75067214999999,
            37.52065738
          ],
          [
            126.75062330083334,
            37.52037219583333
          ],
          [
            126.75058225166667,
            37.52009978666667
          ],
          [
            126.75054467,
            37.51986114333334
          ],
          [
            126.75050328153846,
            37.51959724538462
          ],
          [
            126.75047110214287,
            37.51939920857143
          ],
          [
            126.75043643833332,
            37.51919251666667
          ],
          [
            126.75040503,
            37.5189895
          ],
          [
            126.75035336,
            37.51874787
          ],
          [
            126.75030971454545,
            37.518537179090906
          ],
          [
            126.75026974999999,
            37.51832545166666
          ],
          [
            126.750235126,
            37.518148198
          ],
          [
            126.75019142181819,
            37.51794894545455
          ],
          [
            126.75015326727272,
            37.517780798181825
          ],
          [
            126.75011092,
            37.517556321818184
          ],
          [
            126.75007653999998,
            37.5173631
          ],
          [
            126.75003647636363,
            37.5171373
          ],
          [
            126.750000718,
            37.516919112
          ],
          [
            126.74996855416667,
            37.51672687916667
          ],
          [
            126.74992911,
            37.516500314999995
          ],
          [
            126.74989192769229,
            37.516283299230764
          ],
          [
            126.74985328272727,
            37.51606757545455
          ],
          [
            126.74981441,
            37.51588839
          ],
          [
            126.74978121,
            37.51565355
          ],
          [
            126.74974062785715,
            37.51546953571428
          ],
          [
            126.74969850615383,
            37.51524736538461
          ],
          [
            126.74966721999999,
            37.51508602
          ],
          [
            126.74962056,
            37.51486722
          ],
          [
            126.749577843,
            37.51468971
          ],
          [
            126.74952787166667,
            37.51449354333333
          ],
          [
            126.74948833,
            37.51431141
          ],
          [
            126.74944096999998,
            37.51409652
          ],
          [
            126.74939678000001,
            37.51390563
          ],
          [
            126.74936426454546,
            37.51374569272727
          ],
          [
            126.74932902999998,
            37.51355913
          ],
          [
            126.74929711545452,
            37.51337685090909
          ],
          [
            126.74926728727273,
            37.51320893454545
          ],
          [
            126.74922040888889,
            37.51299646555556
          ],
          [
            126.74918285,
            37.51283062
          ],
          [
            126.74913814700001,
            37.512646714
          ],
          [
            126.74909273384615,
            37.51246208
          ],
          [
            126.74904317333332,
            37.51227164
          ],
          [
            126.7490021076923,
            37.512105640769235
          ],
          [
            126.74895680818182,
            37.511915857272726
          ],
          [
            126.74891858363635,
            37.511758390000004
          ],
          [
            126.74887271999998,
            37.51155699
          ],
          [
            126.7488222290909,
            37.51133649909091
          ],
          [
            126.74877848,
            37.511131375
          ],
          [
            126.74874451142857,
            37.51093902428572
          ],
          [
            126.748710835,
            37.51076215
          ],
          [
            126.74867467933333,
            37.51059028466667
          ],
          [
            126.74863015785715,
            37.51038513785714
          ],
          [
            126.7485977,
            37.51021056
          ],
          [
            126.7485551,
            37.50999447
          ],
          [
            126.74851706857145,
            37.509807210000005
          ],
          [
            126.748478706,
            37.509610736
          ],
          [
            126.74844875928571,
            37.50943170714286
          ],
          [
            126.74841977909091,
            37.5092582409091
          ],
          [
            126.74838565142856,
            37.50906340428572
          ],
          [
            126.7483535923077,
            37.508872403846155
          ],
          [
            126.7483306,
            37.50870665
          ],
          [
            126.74829655857143,
            37.50851089785714
          ],
          [
            126.748262512,
            37.508317352
          ],
          [
            126.74823408666667,
            37.508165053333336
          ],
          [
            126.74819775636364,
            37.507981856363635
          ],
          [
            126.748168095,
            37.50785237
          ],
          [
            126.74812854999999,
            37.5076990075
          ],
          [
            126.74808936666666,
            37.507550441666666
          ],
          [
            126.74805395,
            37.5074165
          ],
          [
            126.7480044753846,
            37.507283146153846
          ],
          [
            126.7479638,
            37.50715167538461
          ],
          [
            126.74792120666666,
            37.507008940000006
          ],
          [
            126.74788394333335,
            37.5068821075
          ],
          [
            126.7478538190909,
            37.506770392727276
          ],
          [
            126.74783150333333,
            37.50668731166667
          ],
          [
            126.74780207,
            37.50660237
          ],
          [
            126.74776411,
            37.50651344
          ],
          [
            126.74771465090909,
            37.50646421
          ],
          [
            126.74835726727274,
            37.50657789454545
          ],
          [
            126.74835407,
            37.506568015
          ],
          [
            126.74750396666667,
            37.506374496666666
          ],
          [
            126.74740491099999,
            37.506364688999994
          ],
          [
            126.74732221,
            37.50637242
          ],
          [
            126.74723413499999,
            37.50639252
          ],
          [
            126.74712925333331,
            37.50640104666667
          ],
          [
            126.74701090363637,
            37.50640552545455
          ],
          [
            126.74688338090908,
            37.50641234818182
          ],
          [
            126.74675663,
            37.50642001769231
          ],
          [
            126.74664764,
            37.50642386
          ],
          [
            126.74649700000002,
            37.5064338
          ],
          [
            126.74636013636363,
            37.50645494545455
          ],
          [
            126.74622911181818,
            37.50647420909091
          ],
          [
            126.74609880818183,
            37.50649453818182
          ],
          [
            126.74596214818183,
            37.50651304363636
          ],
          [
            126.74578261,
            37.506528599999996
          ],
          [
            126.74563067599999,
            37.506537484
          ],
          [
            126.74548662000001,
            37.50654894
          ],
          [
            126.74530479,
            37.50656384
          ],
          [
            126.74517307500001,
            37.506576897500004
          ],
          [
            126.74467246454546,
            37.50616135909092
          ],
          [
            126.74469243333333,
            37.50640170666667
          ],
          [
            126.74469245363638,
            37.50660890636363
          ],
          [
            126.74453803166666,
            37.50661482833333
          ],
          [
            126.74440512666666,
            37.50661321333333
          ],
          [
            126.74426391,
            37.50661208
          ],
          [
            126.74409965,
            37.50661687
          ],
          [
            126.74399172199999,
            37.50662287
          ],
          [
            126.74390757799999,
            37.506625606
          ],
          [
            126.74383426166666,
            37.506625455
          ],
          [
            126.74376145333333,
            37.506623096666665
          ],
          [
            126.74370052727272,
            37.50662014818182
          ],
          [
            126.74363801,
            37.50661582
          ],
          [
            126.7435613,
            37.50661442
          ],
          [
            126.74347977166667,
            37.50662146916667
          ],
          [
            126.74339930545453,
            37.50662208818182
          ],
          [
            126.74329828818182,
            37.50662509090909
          ],
          [
            126.74321521818182,
            37.50663097090909
          ],
          [
            126.74313981818182,
            37.50663496272727
          ],
          [
            126.74303660666666,
            37.50663519888889
          ],
          [
            126.74294773,
            37.50663572
          ],
          [
            126.74282536692309,
            37.50664784
          ],
          [
            126.74270951,
            37.50664392454545
          ],
          [
            126.74260276454547,
            37.506643273636364
          ],
          [
            126.74251384454546,
            37.506640735454546
          ],
          [
            126.74240738666667,
            37.506631803333335
          ],
          [
            126.74231199818182,
            37.50661538090909
          ],
          [
            126.74221775999999,
            37.50659266
          ],
          [
            126.74209866909091,
            37.50657509636364
          ],
          [
            126.74199350181817,
            37.506565936363636
          ],
          [
            126.74188832454547,
            37.506560143636364
          ],
          [
            126.74176987833334,
            37.50655773416667
          ],
          [
            126.74164765249999,
            37.5065600325
          ],
          [
            126.74152001750001,
            37.5065667775
          ],
          [
            126.74138018,
            37.50656994
          ],
          [
            126.74124507714285,
            37.50658267714285
          ],
          [
            126.74109551,
            37.50658879
          ],
          [
            126.74096691272729,
            37.50659493636363
          ],
          [
            126.74082621916666,
            37.50660832083333
          ],
          [
            126.74066833545454,
            37.50662685818182
          ],
          [
            126.74052716599999,
            37.506639404
          ],
          [
            126.74039323000001,
            37.50665166
          ],
          [
            126.74023492230769,
            37.5066545123077
          ],
          [
            126.74008512636364,
            37.50665358818182
          ],
          [
            126.73993134454545,
            37.50665867545455
          ],
          [
            126.73977885076923,
            37.506666206153845
          ],
          [
            126.73967123749999,
            37.50667058
          ],
          [
            126.73949774615386,
            37.506676139999996
          ],
          [
            126.73936587,
            37.506683173333336
          ],
          [
            126.73920715,
            37.50668904
          ],
          [
            126.73905506583334,
            37.5066937975
          ],
          [
            126.73890417333332,
            37.50670022166667
          ],
          [
            126.738779836,
            37.50670571
          ],
          [
            126.738633035,
            37.506711435
          ],
          [
            126.73848968846154,
            37.50671595
          ],
          [
            126.73836863428572,
            37.50671990285714
          ],
          [
            126.73822946,
            37.50672778
          ],
          [
            126.73807595,
            37.50672926
          ],
          [
            126.73795427,
            37.506736597142854
          ],
          [
            126.73786371307693,
            37.50674898923077
          ],
          [
            126.73775253599999,
            37.506757926
          ],
          [
            126.73767013999999,
            37.50676383285714
          ],
          [
            126.73759964285715,
            37.50677233857142
          ],
          [
            126.73753987333333,
            37.50677944333333
          ],
          [
            126.73749624,
            37.50678536
          ],
          [
            126.73745623,
            37.506785
          ],
          [
            126.73743169214286,
            37.50678907785714
          ],
          [
            126.7374113357143,
            37.50678761857142
          ],
          [
            126.73740014500001,
            37.506787095
          ],
          [
            126.73739031615385,
            37.50678808461539
          ],
          [
            126.73738182769232,
            37.50678915076923
          ],
          [
            126.73737542,
            37.50679012
          ],
          [
            126.73737416,
            37.50679162
          ],
          [
            126.73737273,
            37.5067939575
          ],
          [
            126.73737155,
            37.50679297
          ],
          [
            126.73736988615384,
            37.50678995384616
          ],
          [
            126.73736802,
            37.50678898384616
          ],
          [
            126.7373667676923,
            37.50679093769231
          ],
          [
            126.73736678,
            37.50679095833333
          ],
          [
            126.73736623,
            37.5067905
          ],
          [
            126.73736647,
            37.50679036
          ],
          [
            126.73736781222222,
            37.50679027111111
          ],
          [
            126.73736844545455,
            37.506789634545456
          ],
          [
            126.73736819333334,
            37.506789352000006
          ],
          [
            126.73736765333332,
            37.506789097500004
          ],
          [
            126.73736734749998,
            37.5067887075
          ],
          [
            126.73736714181818,
            37.50678846090909
          ],
          [
            126.73736726,
            37.50678877
          ],
          [
            126.73736785583333,
            37.506789485
          ],
          [
            126.73736830230769,
            37.50679038076923
          ],
          [
            126.73736874142857,
            37.50679086571428
          ],
          [
            126.73736931500001,
            37.506791475
          ],
          [
            126.73736972307694,
            37.50679201769231
          ],
          [
            126.73736955384615,
            37.50679205923077
          ],
          [
            126.73736923,
            37.50679208266667
          ],
          [
            126.73736897000002,
            37.5067921
          ],
          [
            126.73736891,
            37.50679211
          ],
          [
            126.73736893499999,
            37.506792185
          ],
          [
            126.73736893307692,
            37.50679219307692
          ],
          [
            126.737368915,
            37.506792185
          ],
          [
            126.73736891153847,
            37.50679219384615
          ],
          [
            126.73736895285715,
            37.506792248571436
          ],
          [
            126.73736896999999,
            37.5067923
          ],
          [
            126.73736944,
            37.50679254
          ],
          [
            126.73736987083333,
            37.506792741666665
          ],
          [
            126.73736989461538,
            37.50679274461539
          ],
          [
            126.73736986846153,
            37.506792723846154
          ],
          [
            126.73736984999998,
            37.5067927
          ],
          [
            126.73736986,
            37.506792686666664
          ],
          [
            126.73736988428571,
            37.50679267571428
          ],
          [
            126.7373699,
            37.50679266
          ],
          [
            126.73736994,
            37.50679264
          ],
          [
            126.73736997666667,
            37.50679260333333
          ],
          [
            126.73736995454546,
            37.50679258090909
          ],
          [
            126.73736993333334,
            37.50679254333333
          ],
          [
            126.73736992555557,
            37.50679252111111
          ],
          [
            126.737369917,
            37.506792503999996
          ],
          [
            126.7373699011111,
            37.50679247888889
          ],
          [
            126.73736983000002,
            37.50679239
          ],
          [
            126.7373698,
            37.50679234
          ],
          [
            126.73736974666667,
            37.506792286666666
          ],
          [
            126.73736973333332,
            37.506792266666665
          ],
          [
            126.73736995777777,
            37.506792437777776
          ],
          [
            126.73736973999999,
            37.50679302090909
          ],
          [
            126.73736921999999,
            37.50679355
          ],
          [
            126.73736671384616,
            37.50679363538462
          ],
          [
            126.73735866,
            37.50679392
          ],
          [
            126.73727451,
            37.50679378
          ],
          [
            126.73720664142857,
            37.50680098
          ],
          [
            126.73712483,
            37.506810279999996
          ],
          [
            126.73704075076922,
            37.50679168230769
          ],
          [
            126.73695417692308,
            37.50678391230769
          ],
          [
            126.73687162533334,
            37.50679266
          ],
          [
            126.7367702625,
            37.5068028475
          ],
          [
            126.73669251,
            37.50681295
          ],
          [
            126.73659615,
            37.50681224
          ],
          [
            126.7365001,
            37.506833140000005
          ],
          [
            126.73639603,
            37.50684504
          ],
          [
            126.73627618583333,
            37.50685430166667
          ],
          [
            126.73618128428572,
            37.50686153428571
          ],
          [
            126.73604786428572,
            37.50687212785714
          ],
          [
            126.73592171,
            37.50688004
          ],
          [
            126.73571685333334,
            37.50694482
          ],
          [
            126.735689,
            37.5069644
          ],
          [
            126.735689,
            37.5069644
          ],
          [
            126.735689,
            37.5069644
          ],
          [
            126.73540728200001,
            37.506963344
          ],
          [
            126.735169802,
            37.50697288799999
          ],
          [
            126.73498012,
            37.50699066
          ],
          [
            126.73486999272727,
            37.50698808727273
          ],
          [
            126.7347523,
            37.50699143923077
          ],
          [
            126.73462968599999,
            37.506999948
          ],
          [
            126.73457283230769,
            37.507008759230764
          ],
          [
            126.73445134400001,
            37.507008805
          ],
          [
            126.73433347999999,
            37.50699603454546
          ],
          [
            126.73421667999999,
            37.50698705083333
          ],
          [
            126.73409986363636,
            37.50699082818182
          ],
          [
            126.73397966099999,
            37.507002342999996
          ],
          [
            126.73385511,
            37.50702946
          ],
          [
            126.733737453,
            37.50705484
          ],
          [
            126.73361829272727,
            37.50705356545455
          ],
          [
            126.73349807363637,
            37.50707451909091
          ],
          [
            126.73470250400001,
            37.507051988
          ],
          [
            126.73428590538461,
            37.507069996153845
          ],
          [
            126.73315345090909,
            37.50711138636364
          ],
          [
            126.73305369333333,
            37.507119483333334
          ],
          [
            126.73293971,
            37.50712050818182
          ],
          [
            126.73284773,
            37.50710601
          ],
          [
            126.73277255416667,
            37.50710505666667
          ],
          [
            126.73273295307693,
            37.50711417076923
          ],
          [
            126.73268546333334,
            37.507133106666664
          ],
          [
            126.73265750833333,
            37.507153155000005
          ],
          [
            126.73263602899999,
            37.507179725
          ],
          [
            126.73262238454545,
            37.507204741818185
          ],
          [
            126.73261759,
            37.50722392
          ],
          [
            126.73261444454546,
            37.50725241090909
          ],
          [
            126.73261673,
            37.507284768333335
          ],
          [
            126.73262441916667,
            37.50732067083334
          ],
          [
            126.732629265,
            37.507368635
          ],
          [
            126.73263304777778,
            37.50741435222223
          ],
          [
            126.732645836,
            37.507446736
          ],
          [
            126.73266978181819,
            37.50746916272727
          ],
          [
            126.73269652,
            37.50748182
          ],
          [
            126.73271296166666,
            37.507514691666664
          ],
          [
            126.7327127,
            37.507525
          ],
          [
            126.7327127,
            37.507525
          ],
          [
            126.7327127,
            37.507525
          ],
          [
            126.7327522,
            37.50751365333333
          ],
          [
            126.7328312,
            37.50749096
          ],
          [
            126.73283888,
            37.50748392
          ],
          [
            126.7328441409091,
            37.50747136090909
          ],
          [
            126.73284117181817,
            37.50747627909091
          ],
          [
            126.73284159727272,
            37.50748301545455
          ],
          [
            126.73284397000002,
            37.50748763
          ]
        ]
      }
    }
  ]
}